STARLINK-4130           
1 53263U 22086X   26068.66547543  .00005989  00000+0  39433-3 0  9994
2 53263  53.2186 194.2295 0001490  78.5274 281.5885 15.08813544201060
2023-069B               
1 56732U 23069B   26068.54706144  .00006772  00000+0  42420-3 0  9992
2 56732  41.0081 274.4606 0011652 279.7432  80.2064 15.09579619155167
